     3.02           N: GNSS NAV DATA    G: GPS              RINEX VERSION / TYPE
BINEX2RINEX  2.10   GSI, JAPAN          20240102 17:54:55UTCPGM / RUN BY / DATE
                                                            END OF HEADER
G02 2024 01 01 12 00 00-5.072741769254D-04 5.456968210638D-12 0.000000000000D+00
     8.000000000000D+00 7.168750000000D+01 4.146958451751D-09 2.844940494322D+00
     3.635883331299D-06 1.630457153078D-02 7.390975952148D-06 5.153907464981D+03
     1.296000000000D+05 3.036111593246D-07-1.713507091202D+00 6.146728992462D-08
     9.674149998950D-01 2.352187500000D+02-1.274387544431D+00-7.778181135322D-09
     1.103617398666D-10 1.000000000000D+00 2.295000000000D+03 0.000000000000D+00
     2.000000000000D+00 0.000000000000D+00-1.769512891769D-08 8.000000000000D+00
     1.224180000000D+05 4.000000000000D+00
G21 2024 01 01 12 00 00 1.397910527885D-04-1.136868377216D-12 0.000000000000D+00
     1.070000000000D+02 7.525000000000D+01 4.226247468742D-09 2.419649182158D+00
     3.950670361519D-06 2.516158448998D-02 7.783994078636D-06 5.153746576309D+03
     1.296000000000D+05 2.682209014893D-07-1.719826260936D+00 3.874301910400D-07
     9.616983183437D-01 2.236250000000D+02-6.592166865410D-01-7.841755212009D-09
    -2.642967233051D-11 1.000000000000D+00 2.295000000000D+03 0.000000000000D+00
     2.800000000000D+00 0.000000000000D+00-1.024454832077D-08 1.070000000000D+02
     1.224180000000D+05 4.000000000000D+00
G21 2024 01 01 11 59 44 1.397891901433D-04-1.136868377216D-12 0.000000000000D+00
     1.000000000000D+01 7.525000000000D+01 4.226247468742D-09 2.417315396261D+00
     3.950670361519D-06 2.516158868093D-02 7.783994078636D-06 5.153746572495D+03
     1.295840000000D+05 2.682209014893D-07-1.719826127810D+00 3.874301910400D-07
     9.616983212695D-01 2.236250000000D+02-6.592165095279D-01-7.841398054275D-09
    -2.642967233051D-11 1.000000000000D+00 2.295000000000D+03 0.000000000000D+00
     2.000000000000D+00 0.000000000000D+00-1.024454832077D-08 1.000000000000D+01
     1.237260000000D+05 4.000000000000D+00
G22 2024 01 01 12 00 00 5.581835284829D-05-6.593836587854D-12 0.000000000000D+00
     2.500000000000D+01 1.393750000000D+01 4.584833833875D-09 3.004343812328D+00
     7.767230272293D-07 1.474368863273D-02 6.187707185745D-06 5.153719163895D+03
     1.296000000000D+05 1.639127731323D-07 2.649040249262D+00 1.490116119385D-07
     9.624689718845D-01 2.602500000000D+02-1.150221531275D+00-7.831040479983D-09
    -2.507247294057D-10 1.000000000000D+00 2.295000000000D+03 0.000000000000D+00
     2.000000000000D+00 0.000000000000D+00-1.117587089539D-08 2.500000000000D+01
     1.240860000000D+05 4.000000000000D+00
G17 2024 01 01 12 00 00 7.208641618490D-04-7.958078640513D-13 0.000000000000D+00
     3.600000000000D+01 1.959375000000D+01 3.984451682692D-09 2.480710810785D+00
     1.149252057076D-06 1.372628216632D-02 8.696690201759D-06 5.153646196365D+03
     1.296000000000D+05 1.266598701477D-07-2.616636191023D+00 0.000000000000D+00
     9.714018232422D-01 2.123125000000D+02-1.351929436762D+00-7.551385974108D-09
    -3.300137463972D-10 1.000000000000D+00 2.295000000000D+03 0.000000000000D+00
     2.000000000000D+00 0.000000000000D+00-1.117587089539D-08 3.600000000000D+01
     1.246560000000D+05 4.000000000000D+00
G10 2024 01 01 11 59 44-6.759958341718D-05-1.477928890381D-12 0.000000000000D+00
     1.300000000000D+01-3.412500000000D+01 4.210889686172D-09-1.830902109450D+00
    -1.830980181694D-06 9.255472687073D-03 3.341585397720D-06 5.153686836243D+03
     1.295840000000D+05 8.568167686462D-08-5.834543901659D-01-8.754432201385D-08
     9.820797310599D-01 3.227812500000D+02-2.399609087247D+00-8.021048394576D-09
     1.521491947675D-10 1.000000000000D+00 2.295000000000D+03 0.000000000000D+00
     2.000000000000D+00 0.000000000000D+00 2.328306436539D-09 1.300000000000D+01
     1.264980000000D+05 4.000000000000D+00
G19 2024 01 01 12 00 00 4.205037839711D-04 5.229594535194D-12 0.000000000000D+00
     3.700000000000D+01 2.859375000000D+01 4.044097024302D-09-1.756047827309D+00
     1.544132828712D-06 9.396818233654D-03 9.324401617050D-06 5.153679018021D+03
     1.296000000000D+05-2.272427082062D-07-2.572237224188D+00-1.303851604462D-08
     9.705258235076D-01 2.072187500000D+02 2.464380954079D+00-7.847469735756D-09
    -1.632210845276D-10 1.000000000000D+00 2.295000000000D+03 0.000000000000D+00
     2.000000000000D+00 0.000000000000D+00-1.536682248116D-08 3.700000000000D+01
     1.290180000000D+05 4.000000000000D+00
G08 2024 01 01 14 00 00-1.599215902388D-04-1.932676241267D-12 0.000000000000D+00
     5.200000000000D+01 1.518750000000D+01 4.471257674401D-09-2.817074526461D+00
     7.487833499908D-07 9.117197245359D-03 9.313225746155D-06 5.153570228577D+03
     1.368000000000D+05-6.705522537231D-08-2.709075074708D+00-8.568167686462D-08
     9.557194935759D-01 1.986562500000D+02 2.922805431150D-01-7.917829809393D-09
    -3.525146836515D-10 1.000000000000D+00 2.295000000000D+03 0.000000000000D+00
     2.000000000000D+00 0.000000000000D+00 5.122274160385D-09 5.200000000000D+01
     1.296180000000D+05 4.000000000000D+00
G22 2024 01 01 14 00 00 5.577085539699D-05-6.593836587854D-12 0.000000000000D+00
     2.600000000000D+01 1.487500000000D+01 4.620906765029D-09-2.228691480437D+00
     8.661299943924D-07 1.474380004220D-02 6.245449185371D-06 5.153718938828D+03
     1.368000000000D+05 7.636845111847D-08 2.648983975192D+00 3.054738044739D-07
     9.624669881676D-01 2.600625000000D+02-1.150217950052D+00-7.904972130962D-09
    -2.550106222160D-10 1.000000000000D+00 2.295000000000D+03 0.000000000000D+00
     2.000000000000D+00 0.000000000000D+00-1.117587089539D-08 2.600000000000D+01
     1.296180000000D+05 4.000000000000D+00
G17 2024 01 01 14 00 00 7.208581082523D-04-7.958078640513D-13 0.000000000000D+00
     3.700000000000D+01 1.921875000000D+01 4.051954494455D-09-2.752282180240D+00
     1.102685928345D-06 1.372605352663D-02 9.065493941307D-06 5.153646636963D+03
     1.368000000000D+05 1.341104507446D-07-2.616690610113D+00 2.235174179077D-08
     9.713994986654D-01 2.108750000000D+02-1.351927726611D+00-7.554600393716D-09
    -3.196561721055D-10 1.000000000000D+00 2.295000000000D+03 0.000000000000D+00
     2.000000000000D+00 0.000000000000D+00-1.117587089539D-08 3.700000000000D+01
     1.296180000000D+05 4.000000000000D+00
G03 2024 01 01 14 00 00 9.612785652280D-05 2.660272002686D-11 0.000000000000D+00
     9.200000000000D+01-2.706250000000D+01 4.261248926693D-09 2.560545294704D-01
    -1.603737473488D-06 5.069142556749D-03 3.932043910027D-06 5.153538146973D+03
     1.368000000000D+05-6.891787052155D-08-5.809328723802D-01 4.097819328308D-08
     9.823864874261D-01 3.179375000000D+02 1.101622441785D+00-8.199627261674D-09
     5.071639825584D-11 1.000000000000D+00 2.295000000000D+03 0.000000000000D+00
     2.800000000000D+00 0.000000000000D+00 1.862645149231D-09 9.200000000000D+01
     1.296180000000D+05 4.000000000000D+00
G14 2024 01 01 14 00 00 2.868818119168D-04 1.034550223267D-11 0.000000000000D+00
     1.400000000000D+02 1.159375000000D+01 5.150928842576D-09-5.923608826656D-02
     4.321336746216D-07 3.803475759923D-03 5.934387445450D-06 5.153677469254D+03
     1.368000000000D+05 2.980232238770D-08 2.585550331692D+00 4.470348358154D-08
     9.468933986651D-01 2.576875000000D+02-2.960497729048D+00-8.393206753608D-09
    -2.310810540249D-10 1.000000000000D+00 2.295000000000D+03 0.000000000000D+00
     2.000000000000D+00 0.000000000000D+00-7.916241884232D-09 3.960000000000D+02
     1.296180000000D+05 4.000000000000D+00
G30 2024 01 01 14 00 00-4.506520926952D-04 4.547473508865D-12 0.000000000000D+00
     3.200000000000D+01 8.562500000000D+00 5.262004897911D-09 5.499177963407D-01
     5.923211574554D-07 6.648687063716D-03 8.534640073776D-06 5.153711853027D+03
     1.368000000000D+05 1.303851604462D-08 1.514945097418D+00 3.352761268616D-08
     9.350041434756D-01 1.995312500000D+02-2.550730758712D+00-8.410707482584D-09
     2.050085394286D-10 1.000000000000D+00 2.295000000000D+03 0.000000000000D+00
     2.000000000000D+00 0.000000000000D+00 3.725290298462D-09 3.200000000000D+01
     1.296180000000D+05 4.000000000000D+00
G02 2024 01 01 14 00 00-5.072345957160D-04 5.456968210638D-12 0.000000000000D+00
     9.000000000000D+00 8.259375000000D+01 4.110528362863D-09-2.388249152392D+00
     4.405155777931D-06 1.630571810529D-02 7.363036274910D-06 5.153905141830D+03
     1.368000000000D+05 1.695007085800D-07-1.713563457436D+00 1.937150955200D-07
     9.674164701277D-01 2.349687500000D+02-1.274347425365D+00-7.741393888700D-09
     2.217949529358D-10 1.000000000000D+00 2.295000000000D+03 0.000000000000D+00
     2.000000000000D+00 0.000000000000D+00-1.769512891769D-08 9.000000000000D+00
     1.296180000000D+05 4.000000000000D+00
G21 2024 01 01 13 59 44 1.397803425789D-04-1.136868377216D-12 0.000000000000D+00
     1.600000000000D+01 9.006250000000D+01 4.143744032143D-09-2.815725569701D+00
     4.841014742851D-06 2.516357006971D-02 7.890164852142D-06 5.153742948532D+03
     1.367840000000D+05-1.043081283569D-07-1.719883186004D+00 3.166496753693D-07
     9.616997168934D-01 2.233750000000D+02-6.592251773176D-01-7.659961925303D-09
     1.960795960737D-10 1.000000000000D+00 2.295000000000D+03 0.000000000000D+00
     2.000000000000D+00 0.000000000000D+00-1.024454832077D-08 1.600000000000D+01
     1.296180000000D+05 4.000000000000D+00
G07 2024 01 01 14 00 00-2.654176205397D-05-9.436007530894D-12 0.000000000000D+00
     6.600000000000D+01 1.106250000000D+01 4.989136388985D-09 6.441134398302D-01
     8.139759302139D-07 1.773945568129D-02 9.264796972275D-06 5.153685258865D+03
     1.368000000000D+05-1.490116119385D-07 1.512134803993D+00 1.285225152969D-07
     9.498697098861D-01 1.992500000000D+02-2.159851642193D+00-8.455709357092D-09
     1.421487782100D-10 1.000000000000D+00 2.295000000000D+03 0.000000000000D+00
     2.000000000000D+00 0.000000000000D+00-1.117587089539D-08 6.600000000000D+01
     1.296420000000D+05 4.000000000000D+00
